STARLINK-36840          
1 67850U 26034A   26069.80635394  .00323392  00000+0  15722-2 0  9992
2 67850  53.1579 205.7612 0000718  76.4465 283.6638 15.80999388  4111
STARLINK-36348          
1 67851U 26034B   26069.74238682  .00269474  00000+0  13208-2 0  9992
2 67851  53.1579 206.0734 0001059  60.3714 299.7415 15.80969642  4109
STARLINK-36276          
1 67852U 26034C   26069.80485669  .00232810  00000+0  11488-2 0  9991
2 67852  53.1582 205.7513 0000922  68.9341 291.1780 15.80923963  4111
STARLINK-36785          
1 67853U 26034D   26069.86732379  .00264968  00000+0  12987-2 0  9995
2 67853  53.1583 205.4293 0001176  54.6782 305.4350 15.80982251  4126
STARLINK-36608          
1 67854U 26034E   26069.86657294  .00237210  00000+0  11668-2 0  9993
2 67854  53.1583 205.4240 0000782  58.5585 301.5514 15.80980779  4116
STARLINK-36838          
1 67855U 26034F   26069.86582339  .00291984  00000+0  14263-2 0  9993
2 67855  53.1582 205.4176 0001343  54.1707 305.9441 15.80981048  4124
STARLINK-36843          
1 67856U 26034G   26069.86432131  .00368255  00000+0  17788-2 0  9999
2 67856  53.1580 205.4083 0000858  65.3147 294.7965 15.81019625  4122
STARLINK-36828          
1 67857U 26034H   26069.86507275  .00266178  00000+0  13042-2 0  9992
2 67857  53.1579 205.4139 0000748  62.4326 297.6773 15.80985135  4124
STARLINK-36837          
1 67858U 26034J   26069.73713546  .00290792  00000+0  14208-2 0  9993
2 67858  53.1584 206.0369 0001018  77.1895 282.9241 15.80978469  4105
STARLINK-36393          
1 67859U 26034K   26069.73638446  .00177874  00000+0  88349-3 0  9992
2 67859  53.1584 206.0327 0000673  89.9444 270.1656 15.80941810  4106
STARLINK-35873          
1 67860U 26034L   26069.79885438  .00201948  00000+0  99951-3 0  9996
2 67860  53.1585 205.7103 0001046  64.1515 295.9615 15.80947724  4140
STARLINK-36325          
1 67861U 26034M   26069.79810507  .00223607  00000+0  11037-2 0  9996
2 67861  53.1584 205.7056 0001173  57.8086 302.3051 15.80945048  4111
